KUIPER-00136            
1 65962U 25228R   26028.91668981  .00003186  00000+0  44660-3 0  9993
2 65962  51.8983 164.0214 0000429 278.5500 350.4917 14.79948446  5497
KUIPER-00137            
1 65963U 25228S   26028.66890864  .00005181  00000+0  64771-3 0  9995
2 65963  51.9033 162.6005 0002425 205.9376 154.1467 14.83705154 17517
KUIPER-00138            
1 65964U 25228T   26028.91668981 -.00409943  00000+0 -49654-1 0  9994
2 65964  51.9265 159.1551 0008179 193.6851 134.6872 14.85283548  5010
KUIPER-00140            
1 65965U 25228U   26028.91668981 -.00014919  00000+0 -18302-2 0  9997
2 65965  51.8975 161.5955 0000620 116.7407 297.3960 14.82191277  5883
KUIPER-00141            
1 65966U 25228V   26028.91668981 -.01597495  00000+0 -16052+0 0  9991
2 65966  51.8961 157.1256 0002439 311.6326 186.7163 14.94265340  4162
KUIPER-00146            
1 65967U 25228W   26028.91668981 -.00002053  00000+0 -21435-3 0  9997
2 65967  51.8996 159.2268 0002243 259.5855 258.1222 14.84481094  5905
KUIPER-00149            
1 65968U 25228X   26028.91668981 -.01532377  00000+0 -11807+0 0  9994
2 65968  51.8917 155.2148 0002255 165.2173 310.7237 15.04793135  4546
KUIPER-00154            
1 65969U 25228Y   26028.91668981 -.00826830  00000+0 -48660-1 0  9993
2 65969  51.8893 153.9649 0006033 179.7140 189.1256 15.13639397  5306
